COSMOS 2425 (716)       
1 29670U 06062A   18342.53554986 -.00000030  00000-0  10000-3 0  9999
2 29670  65.1970 286.6402 0022442 340.9099 286.6943  2.13104907 93029
COSMOS 2426 (717)       
1 29671U 06062B   18343.51635981 -.00000022  00000-0  10000-3 0  9995
2 29671  65.2147 286.7092 0016964 171.9526 342.6011  2.13103052 93054
COSMOS 2433 (720)       
1 32275U 07052A   18342.80208385 -.00000056  00000-0  10000-3 0  9991
2 32275  65.7685  47.5093 0004082 243.2676  59.4751  2.13104557 86542
COSMOS 2432 (719)       
1 32276U 07052B   18342.86661505 -.00000056  00000-0  10000-3 0  9995
2 32276  65.7812  47.5886 0010141 324.4338 339.3471  2.13103758 86546
COSMOS 2434 (721)       
1 32393U 07065A   18343.12085502 -.00000025  00000-0  00000+0 0  9997
2 32393  64.8115 285.5120 0001770 121.0197 313.9307  2.13102948 85263
COSMOS 2436 (723)       
1 32395U 07065C   18342.80727678 -.00000027  00000-0  10000-3 0  9997
2 32395  64.8222 285.5759 0015840 352.4104 253.3276  2.13104271 85187
COSMOS 2456 (730)       
1 36111U 09070A   18342.72026559  .00000060  00000-0  00000-0 0  9998
2 36111  64.1912 165.1361 0003053 351.3473 309.0048  2.13102926 69912
COSMOS 2457 (733)       
1 36112U 09070B   18342.62192987  .00000061  00000-0  00000+0 0  9997
2 36112  64.1733 165.0467 0006843 147.8839 203.0197  2.13101543 69916
COSMOS 2458 (734)       
1 36113U 09070C   18343.30966618  .00000058  00000-0  10000-3 0  9995
2 36113  64.1798 165.0368 0003084  53.5901 147.3958  2.13092110 69931
COSMOS 2459 (731)       
1 36400U 10007A   18343.15431185 -.00000057  00000-0  10000-3 0  9995
2 36400  65.6764  46.5397 0025175 348.3305  82.1113  2.13102104 68283
COSMOS 2461 (735)       
1 36401U 10007B   18342.60513259 -.00000057  00000-0  10000-3 0  9998
2 36401  65.6699  46.5297 0005318  74.9382 204.7512  2.13101934 68267
COSMOS 2460 (732)       
1 36402U 10007C   18342.72973317 -.00000057  00000-0  10000-3 0  9997
2 36402  65.6605  46.4925 0001469 215.5983 199.9801  2.13101530 68274
COSMOS 2464 (736)       
1 37139U 10041C   18342.60492847 -.00000029  00000-0  00000+0 0  9998
2 37139  64.4138 285.2472 0024336   6.8604 260.1176  2.13102739 64330
COSMOS 2471 (701K)      
1 37372U 11009A   18342.57237815 -.00000057  00000-0  00000+0 0  9991
2 37372  65.6568  46.4414 0009678 229.8686 212.7320  2.13107647 60547
COSMOS 2474 (742)       
1 37829U 11055A   18342.94872267  .00000060  00000-0  00000-0 0  9990
2 37829  64.5140 165.9202 0006533 236.4899  96.4289  2.13101859 55912
COSMOS 2476 (744)       
1 37867U 11064A   18342.50205757  .00000062  00000-0  00000+0 0  9999
2 37867  64.4919 165.9924 0016510 235.9054 160.4254  2.13101910 55261
COSMOS 2477 (745)       
1 37868U 11064B   18342.69779270  .00000061  00000-0  00000-0 0  9996
2 37868  64.5016 166.0367 0014285 236.6566 128.6591  2.13101832 55226
COSMOS 2475 (743)       
1 37869U 11064C   18343.45188197  .00000059  00000-0  00000+0 0  9990
2 37869  64.5087 166.0069 0018043 265.3919 275.3611  2.13102086 55248
COSMOS 2485 (747)       
1 39155U 13019A   18343.37479998  .00000060  00000-0  00000+0 0  9997
2 39155  64.6624 166.1106 0017112 230.6978 160.0070  2.13101921 43754
COSMOS 2492 (754)       
1 39620U 14012A   18342.58521593 -.00000057  00000-0  10000-3 0  9991
2 39620  65.5487  46.3572 0013657 322.1228 217.7755  2.13103388 36682
COSMOS 2500 (755)       
1 40001U 14032A   18342.75933615 -.00000057  00000-0  00000+0 0  9994
2 40001  65.4903  46.3089 0007840 212.6021 322.7231  2.13102362 34903
COSMOS 2501 (702K)      
1 40315U 14075A   18343.08333918 -.00000027  00000-0  00000+0 0  9993
2 40315  64.1356 286.3813 0016368 212.2562  11.4511  2.13098453 31311
COSMOS 2514 (751)       
1 41330U 16008A   18342.92548252 -.00000058  00000-0  00000+0 0  9994
2 41330  65.2928  46.3124 0011255 216.7207 267.3543  2.13103085 22078
COSMOS 2516 (753)       
1 41554U 16032A   18343.48157343 -.00000024  00000-0  00000+0 0  9991
2 41554  64.3596 286.2809 0012919 226.4931 214.9696  2.13101736 19694
COSMOS 2522 (752)       
1 42939U 17055A   18342.46975124 -.00000031  00000-0  00000+0 0  9995
2 42939  64.5909 286.3348 0009217 253.4359 358.2415  2.13101965  9427
